{
  "type": "FeatureCollection",
  "features": [
    {
      "type": "Feature",
      "properties": {
        "norad_id": 15362,
        "name": "NOVA 3",
        "group": "nnss",
        "lat": -30.45055002718035,
        "lon": 80.59162474141141,
        "alt_km": 1156.08667855554,
        "timestamp": "2025-12-11T10:53:16.155079+00:00",
        "meta_object_name": "NOVA 3",
        "meta_object_id": "1984-110A",
        "meta_epoch": "2025-12-11T05:44:15.214272",
        "meta_mean_motion": 13.23044356,
        "meta_eccentricity": 0.0030598,
        "meta_inclination": 90.1224,
        "meta_ra_of_asc_node": 80.5171,
        "meta_arg_of_pericenter": 336.1988,
        "meta_mean_anomaly": 51.9779,
        "meta_ephemeris_type": 0,
        "meta_classification_type": "U",
        "meta_norad_cat_id": 15362,
        "meta_element_set_no": 999,
        "meta_rev_at_epoch": 98679,
        "meta_bstar": 0.00023753,
        "meta_mean_motion_dot": 1.08e-06,
        "meta_mean_motion_ddot": 0,
        "tle_line1": "1 15362U 84110A   25345.23906498  .00000108  00000+0  23753-3 0  9992",
        "tle_line2": "2 15362  90.1224  80.5171 0030598 336.1988  51.9779 13.23044356986790"
      },
      "geometry": {
        "type": "Point",
        "coordinates": [
          80.59162474141141,
          -30.45055002718035
        ]
      }
    },
    {
      "type": "Feature",
      "properties": {
        "norad_id": 15935,
        "name": "OSCAR 30",
        "group": "nnss",
        "lat": -11.832010387817606,
        "lon": 99.86056519241876,
        "alt_km": 1146.5028299794694,
        "timestamp": "2025-12-11T10:53:16.155090+00:00",
        "meta_object_name": "OSCAR 30",
        "meta_object_id": "1985-066A",
        "meta_epoch": "2025-12-11T05:51:44.813088",
        "meta_mean_motion": 13.3607809,
        "meta_eccentricity": 0.016942,
        "meta_inclination": 90.1649,
        "meta_ra_of_asc_node": 99.8226,
        "meta_arg_of_pericenter": 88.0784,
        "meta_mean_anomaly": 335.5713,
        "meta_ephemeris_type": 0,
        "meta_classification_type": "U",
        "meta_norad_cat_id": 15935,
        "meta_element_set_no": 999,
        "meta_rev_at_epoch": 96433,
        "meta_bstar": 0.00025022,
        "meta_mean_motion_dot": 1.49e-06,
        "meta_mean_motion_ddot": 0,
        "tle_line1": "1 15935U 85066A   25345.24426867  .00000149  00000+0  25022-3 0  9993",
        "tle_line2": "2 15935  90.1649  99.8226 0169420  88.0784 335.5713 13.36078090964336"
      },
      "geometry": {
        "type": "Point",
        "coordinates": [
          99.86056519241876,
          -11.832010387817606
        ]
      }
    },
    {
      "type": "Feature",
      "properties": {
        "norad_id": 15936,
        "name": "OSCAR 24",
        "group": "nnss",
        "lat": 65.23065535254025,
        "lon": 91.89467253614066,
        "alt_km": 1005.4066157833067,
        "timestamp": "2025-12-11T10:53:16.155102+00:00",
        "meta_object_name": "OSCAR 24",
        "meta_object_id": "1985-066B",
        "meta_epoch": "2025-12-11T05:15:58.567104",
        "meta_mean_motion": 13.35935481,
        "meta_eccentricity": 0.0170499,
        "meta_inclination": 90.1789,
        "meta_ra_of_asc_node": 92.2785,
        "meta_arg_of_pericenter": 94.5846,
        "meta_mean_anomaly": 285.7733,
        "meta_ephemeris_type": 0,
        "meta_classification_type": "U",
        "meta_norad_cat_id": 15936,
        "meta_element_set_no": 999,
        "meta_rev_at_epoch": 96623,
        "meta_bstar": 0.00019752,
        "meta_mean_motion_dot": 1.2e-06,
        "meta_mean_motion_ddot": 0,
        "tle_line1": "1 15936U 85066B   25345.21942786  .00000120  00000+0  19752-3 0  9996",
        "tle_line2": "2 15936  90.1789  92.2785 0170499  94.5846 285.7733 13.35935481966232"
      },
      "geometry": {
        "type": "Point",
        "coordinates": [
          91.89467253614066,
          65.23065535254025
        ]
      }
    },
    {
      "type": "Feature",
      "properties": {
        "norad_id": 17070,
        "name": "POLAR BEAR",
        "group": "nnss",
        "lat": 80.12135867939747,
        "lon": -173.97643263148382,
        "alt_km": 951.3640702815119,
        "timestamp": "2025-12-11T10:53:16.155113+00:00",
        "meta_object_name": "POLAR BEAR",
        "meta_object_id": "1986-088A",
        "meta_epoch": "2025-12-11T02:21:33.969312",
        "meta_mean_motion": 13.75250284,
        "meta_eccentricity": 0.0040873,
        "meta_inclination": 89.6175,
        "meta_ra_of_asc_node": 183.8395,
        "meta_arg_of_pericenter": 123.9989,
        "meta_mean_anomaly": 358.2379,
        "meta_ephemeris_type": 0,
        "meta_classification_type": "U",
        "meta_norad_cat_id": 17070,
        "meta_element_set_no": 999,
        "meta_rev_at_epoch": 95956,
        "meta_bstar": 0.00014202,
        "meta_mean_motion_dot": 1.48e-06,
        "meta_mean_motion_ddot": 0,
        "tle_line1": "1 17070U 86088A   25345.09830983  .00000148  00000+0  14202-3 0  9998",
        "tle_line2": "2 17070  89.6175 183.8395 0040873 123.9989 358.2379 13.75250284959561"
      },
      "geometry": {
        "type": "Point",
        "coordinates": [
          -173.97643263148382,
          80.12135867939747
        ]
      }
    },
    {
      "type": "Feature",
      "properties": {
        "norad_id": 18361,
        "name": "OSCAR 27",
        "group": "nnss",
        "lat": 62.85596819387358,
        "lon": -100.04540421769161,
        "alt_km": 1111.133464973751,
        "timestamp": "2025-12-11T10:53:16.155124+00:00",
        "meta_object_name": "OSCAR 27",
        "meta_object_id": "1987-080A",
        "meta_epoch": "2025-12-11T04:56:27.771936",
        "meta_mean_motion": 13.4490624,
        "meta_eccentricity": 0.0102794,
        "meta_inclination": 90.3742,
        "meta_ra_of_asc_node": 79.215,
        "meta_arg_of_pericenter": 228.2391,
        "meta_mean_anomaly": 130.9937,
        "meta_ephemeris_type": 0,
        "meta_classification_type": "U",
        "meta_norad_cat_id": 18361,
        "meta_element_set_no": 999,
        "meta_rev_at_epoch": 87536,
        "meta_bstar": 0.00025141,
        "meta_mean_motion_dot": 1.6e-06,
        "meta_mean_motion_ddot": 0,
        "tle_line1": "1 18361U 87080A   25345.20587699  .00000160  00000+0  25141-3 0  9999",
        "tle_line2": "2 18361  90.3742  79.2150 0102794 228.2391 130.9937 13.44906240875364"
      },
      "geometry": {
        "type": "Point",
        "coordinates": [
          -100.04540421769161,
          62.85596819387358
        ]
      }
    },
    {
      "type": "Feature",
      "properties": {
        "norad_id": 18362,
        "name": "OSCAR 29",
        "group": "nnss",
        "lat": 48.454693387608785,
        "lon": -99.8932407977888,
        "alt_km": 1125.9761221987883,
        "timestamp": "2025-12-11T10:53:16.155135+00:00",
        "meta_object_name": "OSCAR 29",
        "meta_object_id": "1987-080B",
        "meta_epoch": "2025-12-11T04:56:54.281184",
        "meta_mean_motion": 13.44447996,
        "meta_eccentricity": 0.010385,
        "meta_inclination": 90.3753,
        "meta_ra_of_asc_node": 79.6737,
        "meta_arg_of_pericenter": 251.6181,
        "meta_mean_anomaly": 123.8203,
        "meta_ephemeris_type": 0,
        "meta_classification_type": "U",
        "meta_norad_cat_id": 18362,
        "meta_element_set_no": 999,
        "meta_rev_at_epoch": 87489,
        "meta_bstar": 0.00022463,
        "meta_mean_motion_dot": 1.42e-06,
        "meta_mean_motion_ddot": 0,
        "tle_line1": "1 18362U 87080B   25345.20618381  .00000142  00000+0  22463-3 0  9997",
        "tle_line2": "2 18362  90.3753  79.6737 0103850 251.6181 123.8203 13.44447996874895"
      },
      "geometry": {
        "type": "Point",
        "coordinates": [
          -99.8932407977888,
          48.454693387608785
        ]
      }
    },
    {
      "type": "Feature",
      "properties": {
        "norad_id": 19070,
        "name": "OSCAR 23",
        "group": "nnss",
        "lat": -14.520484646888853,
        "lon": 16.436125188169925,
        "alt_km": 1295.2703088942008,
        "timestamp": "2025-12-11T10:53:16.155147+00:00",
        "meta_object_name": "OSCAR 23",
        "meta_object_id": "1988-033A",
        "meta_epoch": "2025-12-11T04:05:25.893312",
        "meta_mean_motion": 13.27786819,
        "meta_eccentricity": 0.01894,
        "meta_inclination": 90.3214,
        "meta_ra_of_asc_node": 16.344,
        "meta_arg_of_pericenter": 184.2871,
        "meta_mean_anomaly": 247.6118,
        "meta_ephemeris_type": 0,
        "meta_classification_type": "U",
        "meta_norad_cat_id": 19070,
        "meta_element_set_no": 999,
        "meta_rev_at_epoch": 82232,
        "meta_bstar": 0.00020978,
        "meta_mean_motion_dot": 1.13e-06,
        "meta_mean_motion_ddot": 0,
        "tle_line1": "1 19070U 88033A   25345.17043858  .00000113  00000+0  20978-3 0  9997",
        "tle_line2": "2 19070  90.3214  16.3440 0189400 184.2871 247.6118 13.27786819822327"
      },
      "geometry": {
        "type": "Point",
        "coordinates": [
          16.436125188169925,
          -14.520484646888853
        ]
      }
    }
  ]
}